CCSDS_OEM_VERS = 1.0
CREATION_DATE  = 2017-05-11T11:22:10
ORIGINATOR     = GMAT USER

META_START
OBJECT_NAME          = MOPSSat_alt_35785_km_RAAN_90_155
OBJECT_ID            = SatId
CENTER_NAME          = Earth
REF_FRAME            = EME2000
TIME_SYSTEM          = UTC
START_TIME           = 2017-01-01T00:00:00.000
USEABLE_START_TIME   = 2017-01-01T00:00:00.000
USEABLE_STOP_TIME    = 2017-01-02T00:00:00.000
STOP_TIME            = 2017-01-02T00:00:00.000
INTERPOLATION        = Lagrange
INTERPOLATION_DEGREE = 7 
META_STOP


                                                                                   

2017-01-01T10:32:30.000  -8.978524085552743e+03  -6.191913176332275e+04   7.842893283062868e+02   1.732178626672575e+00  -5.116846156686217e-01  -1.515933368088926e-01
2017-01-01T10:32:40.000  -8.961201568769660e+03  -6.192424357228071e+04   7.827733309254970e+02   1.732324652018917e+00  -5.106771743878398e-01  -1.516061325319173e-01
2017-01-01T10:32:50.000  -8.943877593371379e+03  -6.192934530698614e+04   7.812572057307755e+02   1.732470377700737e+00  -5.096697734142780e-01  -1.516189020445741e-01
2017-01-01T10:33:00.000  -8.926552162354148e+03  -6.193443696784198e+04   7.797409529841919e+02   1.732615803801333e+00  -5.086624126688476e-01  -1.516316453541388e-01
2017-01-01T10:33:10.000  -8.909225278694170e+03  -6.193951855525593e+04   7.782245729460616e+02   1.732760930403985e+00  -5.076550920713430e-01  -1.516443624678860e-01
2017-01-01T10:33:20.000  -8.891896945306245e+03  -6.194459006965237e+04   7.767080658713248e+02   1.732905757592284e+00  -5.066478115380422e-01  -1.516570533931177e-01
2017-01-01T10:33:30.000  -8.874567165105775e+03  -6.194965151145446e+04   7.751914320149762e+02   1.733050285449632e+00  -5.056405709853068e-01  -1.516697181371188e-01
2017-01-01T10:33:40.000  -8.857235941015007e+03  -6.195470288108239e+04   7.736746716326088e+02   1.733194514059179e+00  -5.046333703299465e-01  -1.516823567071528e-01
2017-01-01T10:33:50.000  -8.839903275980234e+03  -6.195974417894767e+04   7.721577849819201e+02   1.733338443503672e+00  -5.036262094902240e-01  -1.516949691104475e-01
2017-01-01T10:34:00.000  -8.822569172985734e+03  -6.196477540544987e+04   7.706407723239332e+02   1.733482073865359e+00  -5.026190883866558e-01  -1.517075553541871e-01
2017-01-01T10:34:10.000  -8.805233635002774e+03  -6.196979656099117e+04   7.691236339185309e+02   1.733625405226398e+00  -5.016120069390541e-01  -1.517201154455479e-01
2017-01-01T10:34:20.000  -8.787896665218144e+03  -6.197480764591113e+04   7.676063700444604e+02   1.733768437667004e+00  -5.006049650797900e-01  -1.517326493915360e-01
2017-01-01T10:34:30.000  -8.770558266757260e+03  -6.197980866056585e+04   7.660889809750940e+02   1.733911171267706e+00  -4.995979627377190e-01  -1.517451571991851e-01
2017-01-01T10:34:40.000  -8.753218442787080e+03  -6.198479960529854e+04   7.645714669874432e+02   1.734053606108503e+00  -4.985909998441592e-01  -1.517576388754822e-01
2017-01-01T10:34:50.000  -8.735877196117317e+03  -6.198978048055439e+04   7.630538283272534e+02   1.734195742272146e+00  -4.975840763097273e-01  -1.517700944276560e-01
2017-01-01T10:35:00.000  -8.718534529598232e+03  -6.199475128676563e+04   7.615360652438188e+02   1.734337579840864e+00  -4.965771920474449e-01  -1.517825238628886e-01
2017-01-01T10:35:10.000  -8.701190446030523e+03  -6.199971202437812e+04   7.600181779820970e+02   1.734479118897106e+00  -4.955703469675021e-01  -1.517949271883824e-01
2017-01-01T10:35:20.000  -8.683844948389769e+03  -6.200466269378533e+04   7.585001668023500e+02   1.734620359521673e+00  -4.945635409903016e-01  -1.518073044111948e-01
2017-01-01T10:35:30.000  -8.666498039659853e+03  -6.200960329537775e+04   7.569820319655662e+02   1.734761301795121e+00  -4.935567740367742e-01  -1.518196555383620e-01
2017-01-01T10:35:40.000  -8.649149722832897e+03  -6.201453382954210e+04   7.554637737334562e+02   1.734901945797740e+00  -4.925500460283789e-01  -1.518319805768968e-01
2017-01-01T10:35:50.000  -8.631800001076246e+03  -6.201945429661547e+04   7.539453923830647e+02   1.735042291608248e+00  -4.915433568967789e-01  -1.518442795336739e-01
2017-01-01T10:36:00.000  -8.614448877507622e+03  -6.202436469694766e+04   7.524268881870943e+02   1.735182339305566e+00  -4.905367065708082e-01  -1.518565524155867e-01
2017-01-01T10:36:10.000  -8.597096355283686e+03  -6.202926503087670e+04   7.509082614216551e+02   1.735322088968120e+00  -4.895300949816055e-01  -1.518687992294845e-01
2017-01-01T10:36:20.000  -8.579742437208435e+03  -6.203415529883911e+04   7.493895123319944e+02   1.735461540676991e+00  -4.885235220399001e-01  -1.518810199824495e-01
2017-01-01T10:36:30.000  -8.562387126124815e+03  -6.203903550125945e+04   7.478706411667670e+02   1.735600694512758e+00  -4.875169876587268e-01  -1.518932146815198e-01
2017-01-01T10:36:40.000  -8.545030424826180e+03  -6.204390563857540e+04   7.463516481702886e+02   1.735739550556217e+00  -4.865104917482896e-01  -1.519053833337528e-01
2017-01-01T10:36:50.000  -8.527672336280901e+03  -6.204876571117333e+04   7.448325336021926e+02   1.735878108886542e+00  -4.855040342290028e-01  -1.519175259460638e-01
2017-01-01T10:37:00.000  -8.510312863465695e+03  -6.205361571943652e+04   7.433132977228403e+02   1.736016369582666e+00  -4.844976150218077e-01  -1.519296425253465e-01
2017-01-01T10:37:10.000  -8.492952009365521e+03  -6.205845566374471e+04   7.417939407933177e+02   1.736154332723256e+00  -4.834912340481736e-01  -1.519417330784719e-01
2017-01-01T10:37:20.000  -8.475589777140720e+03  -6.206328554442879e+04   7.402744630900577e+02   1.736291998385436e+00  -4.824848912397713e-01  -1.519537976121754e-01
2017-01-01T10:37:30.000  -8.458226169901982e+03  -6.206810536183223e+04   7.387548648851480e+02   1.736429366646530e+00  -4.814785865254426e-01  -1.519658361332102e-01
2017-01-01T10:37:40.000  -8.440861190798969e+03  -6.207291511628673e+04   7.372351464540883e+02   1.736566437583367e+00  -4.804723198363341e-01  -1.519778486482861e-01
2017-01-01T10:37:50.000  -8.423494842628470e+03  -6.207771480822093e+04   7.357153080414961e+02   1.736703211275385e+00  -4.794660910831896e-01  -1.519898351643413e-01
2017-01-01T10:38:00.000  -8.406127128226246e+03  -6.208250443805147e+04   7.341953498953983e+02   1.736839687801522e+00  -4.784599001790572e-01  -1.520017956882707e-01
2017-01-01T10:38:10.000  -8.388758050378457e+03  -6.208728400620795e+04   7.326752722594822e+02   1.736975867240929e+00  -4.774537470341565e-01  -1.520137302269873e-01
2017-01-01T10:38:20.000  -8.371387612046416e+03  -6.209205351306957e+04   7.311550753927653e+02   1.737111749671165e+00  -4.764476315689124e-01  -1.520256387872649e-01
2017-01-01T10:38:30.000  -8.354015816199812e+03  -6.209681295901258e+04   7.296347595549948e+02   1.737247335169543e+00  -4.754415537042776e-01  -1.520375213758560e-01
2017-01-01T10:38:40.000  -8.336642665816602e+03  -6.210156234440959e+04   7.281143250066447e+02   1.737382623813122e+00  -4.744355133617328e-01  -1.520493779994904e-01
2017-01-01T10:38:50.000  -8.319268164050240e+03  -6.210630166958529e+04   7.265937720235472e+02   1.737517615677439e+00  -4.734295104729561e-01  -1.520612086647648e-01
2017-01-01T10:39:00.000  -8.301892314004548e+03  -6.211103093487684e+04   7.250731008771896e+02   1.737652310838227e+00  -4.724235449667984e-01  -1.520730133782930e-01
2017-01-01T10:39:10.000  -8.284515118824023e+03  -6.211575014060927e+04   7.235523118426211e+02   1.737786709370721e+00  -4.714176167745116e-01  -1.520847921466453e-01
2017-01-01T10:39:20.000  -8.267136581295172e+03  -6.212045928720397e+04   7.220314051635606e+02   1.737920811352742e+00  -4.704117258066691e-01  -1.520965449766186e-01
2017-01-01T10:39:30.000  -8.249756704246223e+03  -6.212515837506999e+04   7.205103810873770e+02   1.738054616861605e+00  -4.694058719763041e-01  -1.521082718749653e-01
2017-01-01T10:39:40.000  -8.232375490443936e+03  -6.212984740463206e+04   7.189892398560613e+02   1.738188125974915e+00  -4.684000551929374e-01  -1.521199728484637e-01
2017-01-01T10:39:50.000  -8.214992942871004e+03  -6.213452637625475e+04   7.174679817305018e+02   1.738321338768411e+00  -4.673942753786410e-01  -1.521316479037278e-01
2017-01-01T10:40:00.000  -8.197609064497161e+03  -6.213919529030533e+04   7.159466069704539e+02   1.738454255317748e+00  -4.663885324547799e-01  -1.521432970473650e-01
2017-01-01T10:40:10.000  -8.180223858330293e+03  -6.214385414713965e+04   7.144251158390099e+02   1.738586875698102e+00  -4.653828263449738e-01  -1.521549202859405e-01
2017-01-01T10:40:20.000  -8.162837327402618e+03  -6.214850294710653e+04   7.129035086013923e+02   1.738719199984299e+00  -4.643771569742879e-01  -1.521665176259888e-01
2017-01-01T10:40:30.000  -8.145449474753299e+03  -6.215314169055205e+04   7.113817855234337e+02   1.738851228250925e+00  -4.633715242682351e-01  -1.521780890740233e-01
2017-01-01T10:40:40.000  -8.128060303422180e+03  -6.215777037782109e+04   7.098599468710244e+02   1.738982960572380e+00  -4.623659281524123e-01  -1.521896346365413e-01
2017-01-01T10:40:50.000  -8.110669816387679e+03  -6.216238900927419e+04   7.083379929046785e+02   1.739114397023355e+00  -4.613603685489034e-01  -1.522011543200656e-01
2017-01-01T10:41:00.000  -8.093278016608133e+03  -6.216699758527629e+04   7.068159238831547e+02   1.739245537678511e+00  -4.603548453786784e-01  -1.522126481311162e-01
2017-01-01T10:41:10.000  -8.075884907021868e+03  -6.217159610619666e+04   7.052937400634598e+02   1.739376382612476e+00  -4.593493585615923e-01  -1.522241160762104e-01
2017-01-01T10:41:20.000  -8.058490490505653e+03  -6.217618457241949e+04   7.037714416972123e+02   1.739506931900151e+00  -4.583439080139908e-01  -1.522355581618894e-01
2017-01-01T10:41:30.000  -8.041094769936943e+03  -6.218076298432785e+04   7.022490290360932e+02   1.739637185616246e+00  -4.573384936523028e-01  -1.522469743946779e-01
